NORAD_CAT_ID,OBJECT_NAME,OBJECT_TYPE,EPOCH,MEAN_MOTION,ECCENTRICITY,INCLINATION,RA_OF_ASC_NODE,ARG_OF_PERICENTER,MEAN_ANOMALY,BSTAR,MEAN_MOTION_DOT,MEAN_MOTION_DDOT,TLE_LINE0,TLE_LINE1,TLE_LINE2,SEMIMAJOR_AXIS,PERIOD,APOGEE,PERIGEE,DECAYED
55953.0,STARLINK-5889,PAYLOAD,2023-08-07 12:16:13,15.69915674,0.0003328,69.9984,139.7373,275.3065,84.7751,1.1282e-05,1.144e-05,0.0,0 STARLINK-5889,1 55953U 23037AR  23219.51126427  .00001144  00000-0  11282-4 0  9995,2 55953  69.9984 139.7373 0003328 275.3065  84.7751 15.69915674 22932,6737.275,91.725,361.382,356.898,0.0
55953.0,STARLINK-5889,PAYLOAD,2023-08-07 21:26:42,15.69938173,0.0003395,69.9989,138.6637,262.4933,97.5877,2.8538e-05,3.222e-05,0.0,0 STARLINK-5889,1 55953U 23037AR  23219.89354557  .00003222  00000-0  28538-4 0  9994,2 55953  69.9989 138.6637 0003395 262.4933  97.5877 15.69938173 22999,6737.211,91.723,361.363,356.789,0.0
55953.0,STARLINK-5889,PAYLOAD,2023-08-08 05:05:29,15.69918016,0.000338,69.9982,137.7664,268.513,91.5678,9.2331e-06,8.97e-06,0.0,0 STARLINK-5889,1 55953U 23037AR  23220.21214728  .00000897  00000-0  92331-5 0  9995,2 55953  69.9982 137.7664 0003380 268.5130  91.5678 15.69918016 23046,6737.269,91.725,361.411,356.856,0.0
55953.0,STARLINK-5889,PAYLOAD,2023-08-09 11:40:31,15.69919029,0.0003259,69.9988,134.1847,264.6648,95.4176,1.1384e-05,1.156e-05,0.0,0 STARLINK-5889,1 55953U 23037AR  23221.48648073  .00001156  00000-0  11384-4 0  9996,2 55953  69.9988 134.1847 0003259 264.6648  95.4176 15.69919029 23245,6737.266,91.724,361.326,356.935,0.0
55953.0,STARLINK-5889,PAYLOAD,2023-08-09 19:19:17,15.69925296,0.0003966,69.9978,133.2875,264.0157,96.0587,4.0068e-06,2.69e-06,0.0,0 STARLINK-5889,1 55953U 23037AR  23221.80505991  .00000269  00000-0  40068-5 0  9999,2 55953  69.9978 133.2875 0003966 264.0157  96.0587 15.69925296 23290,6737.248,91.724,361.785,356.441,0.0
55953.0,STARLINK-5889,PAYLOAD,2023-08-10 21:19:04,15.69927264,0.0003667,69.9988,130.2438,264.4066,95.6711,6.0426e-06,5.14e-06,0.0,0 STARLINK-5889,1 55953U 23037AR  23222.88824175  .00000514  00000-0  60426-5 0  9999,2 55953  69.9988 130.2438 0003667 264.4066  95.6711 15.69927264 23464,6737.242,91.724,361.578,356.637,0.0
55953.0,STARLINK-5889,PAYLOAD,2023-08-11 18:43:36,15.69917728,0.0003981,69.9974,127.7351,263.3226,96.7516,-2.1421e-06,-4.71e-06,0.0,0 STARLINK-5889,1 55953U 23037AR  23223.78028555 -.00000471  00000-0 -21421-5 0  9993,2 55953  69.9974 127.7351 0003981 263.3226  96.7516 15.69917728 23604,6737.269,91.725,361.816,356.452,0.0
55953.0,STARLINK-5889,PAYLOAD,2023-08-12 02:22:21,15.69930864,0.0003551,69.9976,126.8378,265.1124,94.9666,1.5767e-05,1.684e-05,0.0,0 STARLINK-5889,1 55953U 23037AR  23224.09885830  .00001684  00000-0  15767-4 0  9995,2 55953  69.9976 126.8378 0003551 265.1124  94.9666 15.69930864 23652,6737.232,91.724,361.489,356.704,0.0
55953.0,STARLINK-5889,PAYLOAD,2023-08-12 17:39:53,15.69928963,0.0003651,69.9966,125.0481,272.4083,87.6694,-7.3396e-07,-3.01e-06,0.0,0 STARLINK-5889,1 55953U 23037AR  23224.73603078 -.00000301  00000-0 -73396-6 0  9999,2 55953  69.9966 125.0481 0003651 272.4083  87.6694 15.69928963 23751,6737.237,91.724,361.562,356.642,0.0
55953.0,STARLINK-5889,PAYLOAD,2023-08-13 18:07:55,15.69923586,0.0003225,69.9983,122.1815,271.5518,88.5308,7.3745e-06,6.74e-06,0.0,0 STARLINK-5889,1 55953U 23037AR  23225.75550101  .00000674  00000-0  73745-5 0  9998,2 55953  69.9983 122.1815 0003225 271.5518  88.5308 15.69923586 23915,6737.253,91.724,361.29,356.945,0.0
55953.0,STARLINK-5889,PAYLOAD,2023-08-15 02:14:42,15.69925735,0.0003081,69.9961,118.4209,265.6079,94.4764,1.2578e-05,1.3e-05,0.0,0 STARLINK-5889,1 55953U 23037AR  23227.09354930  .00001300  00000-0  12578-4 0  9992,2 55953  69.9961 118.4209 0003081 265.6079  94.4764 15.69925735 24126,6737.246,91.724,361.187,357.036,0.0
55953.0,STARLINK-5889,PAYLOAD,2023-08-16 01:11:00,15.69923412,0.0003202,69.9973,115.7323,268.1075,91.9754,-6.2296e-06,-9.62e-06,0.0,0 STARLINK-5889,1 55953U 23037AR  23228.04930572 -.00000962  00000-0 -62296-5 0  9998,2 55953  69.9973 115.7323 0003202 268.1075  91.9754 15.69923412 24272,6737.253,91.724,361.275,356.961,0.0
55953.0,STARLINK-5889,PAYLOAD,2023-08-16 04:14:29,15.69927662,0.0003497,69.998,115.3728,249.7611,110.3208,2.0818e-06,3.7e-07,0.0,0 STARLINK-5889,1 55953U 23037AR  23228.17673423  .00000037  00000-0  20818-5 0  9996,2 55953  69.9980 115.3728 0003497 249.7611 110.3208 15.69927662 24295,6737.241,91.724,361.462,356.75,0.0
55953.0,STARLINK-5889,PAYLOAD,2023-08-17 15:24:48,15.69917626,0.0003841,69.9966,111.2512,265.2019,94.8738,8.7208e-06,8.35e-06,0.0,0 STARLINK-5889,1 55953U 23037AR  23229.64222308  .00000835  00000-0  87208-5 0  9993,2 55953  69.9966 111.2512 0003841 265.2019  94.8738 15.69917626 24522,6737.27,91.725,361.722,356.547,0.0
55953.0,STARLINK-5889,PAYLOAD,2023-08-18 02:07:03,15.69926167,0.0003592,69.996,109.9989,266.6101,93.4683,1.2079e-05,1.24e-05,0.0,0 STARLINK-5889,1 55953U 23037AR  23230.08823528  .00001240  00000-0  12079-4 0  9998,2 55953  69.9960 109.9989 0003592 266.6101  93.4683 15.69926167 24599,6737.245,91.724,361.53,356.69,0.0
55953.0,STARLINK-5889,PAYLOAD,2023-08-19 02:35:05,15.69928089,0.0003873,69.9962,107.1327,270.9966,89.0786,-2.5582e-06,-5.21e-06,0.0,0 STARLINK-5889,1 55953U 23037AR  23231.10770272 -.00000521  00000-0 -25582-5 0  9996,2 55953  69.9962 107.1327 0003873 270.9966  89.0786 15.69928089 24754,6737.24,91.724,361.714,356.495,0.0
55953.0,STARLINK-5889,PAYLOAD,2023-08-20 01:31:22,15.6991938,0.0003338,69.9961,104.4454,268.8821,91.1992,4.7192e-06,3.55e-06,0.0,0 STARLINK-5889,1 55953U 23037AR  23232.06345971  .00000355  00000-0  47192-5 0  9990,2 55953  69.9961 104.4454 0003338 268.8821  91.1992 15.69919380 24900,6737.265,91.724,361.379,356.881,0.0
55953.0,STARLINK-5889,PAYLOAD,2023-08-20 18:20:40,15.69890784,0.0002883,69.9977,102.4749,267.4713,92.6152,2.9939e-05,3.384e-05,0.0,0 STARLINK-5889,1 55953U 23037AR  23232.76435510  .00003384  00000-0  29939-4 0  9999,2 55953  69.9977 102.4749 0002883 267.4713  92.6152 15.69890784 25014,6737.346,91.726,361.154,357.269,0.0
55953.0,STARLINK-5889,PAYLOAD,2023-08-21 01:59:24,15.69935396,0.000345,69.9981,101.5791,261.5624,98.5181,7.0175e-06,6.31e-06,0.0,0 STARLINK-5889,1 55953U 23037AR  23233.08292188  .00000631  00000-0  70175-5 0  9998,2 55953  69.9981 101.5791 0003450 261.5624  98.5181 15.69935396 25064,6737.219,91.724,361.408,356.759,0.0
55953.0,STARLINK-5889,PAYLOAD,2023-08-21 18:48:41,15.69912582,0.0004767,69.9969,99.6098,292.3311,67.7379,1.3716e-05,1.436e-05,0.0,0 STARLINK-5889,1 55953U 23037AR  23233.78381453  .00001436  00000-0  13716-4 0  9990,2 55953  69.9969  99.6098 0004767 292.3311  67.7379 15.69912582 25175,6737.284,91.725,362.361,355.937,0.0
55953.0,STARLINK-5889,PAYLOAD,2023-08-23 01:23:43,15.69926166,0.0003641,69.9973,96.0264,271.0312,89.0466,9.2353e-06,8.98e-06,0.0,0 STARLINK-5889,1 55953U 23037AR  23235.05814337  .00000898  00000-0  92353-5 0  9990,2 55953  69.9973  96.0264 0003641 271.0312  89.0466 15.69926166 25370,6737.245,91.724,361.563,356.657,0.0
55953.0,STARLINK-5889,PAYLOAD,2023-08-24 00:20:00,15.69930894,0.0003394,69.9969,93.3377,270.7288,89.3519,-1.616e-05,-2.156e-05,0.0,0 STARLINK-5889,1 55953U 23037AR  23236.01389321 -.00002156  00000-0 -16160-4 0  9999,2 55953  69.9969  93.3377 0003394 270.7288  89.3519 15.69930894 25187,6737.232,91.724,361.383,356.81,0.0
55953.0,STARLINK-5889,PAYLOAD,2023-08-24 23:16:14,15.69947141,0.0003722,69.9974,90.6508,270.4898,89.5871,2.6927e-05,3.029e-05,0.0,0 STARLINK-5889,1 55953U 23037AR  23236.96961759  .00003029  00000-0  26927-4 0  9994,2 55953  69.9974  90.6508 0003722 270.4898  89.5871 15.69947141 25678,6737.185,91.723,361.558,356.543,0.0
55953.0,STARLINK-5889,PAYLOAD,2023-08-25 17:37:19,15.69904132,0.0003853,69.9971,88.5009,273.2337,86.8417,-1.0568e-05,-1.483e-05,0.0,0 STARLINK-5889,1 55953U 23037AR  23237.73425153 -.00001483  00000-0 -10568-4 0  9991,2 55953  69.9971  88.5009 0003853 273.2337  86.8417 15.69904132 25793,6737.308,91.725,361.769,356.577,0.0
55953.0,STARLINK-5889,PAYLOAD,2023-08-25 23:44:20,15.69893128,0.0003187,69.9986,87.7843,278.5881,81.4953,-9.6445e-06,-1.371e-05,0.0,0 STARLINK-5889,1 55953U 23037AR  23237.98913117 -.00001371  00000-0 -96445-5 0  9995,2 55953  69.9986  87.7843 0003187 278.5881  81.4953 15.69893128 25831,6737.34,91.726,361.352,357.058,0.0
55953.0,STARLINK-5889,PAYLOAD,2023-08-26 13:30:04,15.69906983,0.0003921,69.996,86.1716,271.7435,88.3312,2.3592e-05,2.623e-05,0.0,0 STARLINK-5889,1 55953U 23037AR  23238.56255618  .00002623  00000-0  23592-4 0  9996,2 55953  69.9960  86.1716 0003921 271.7435  88.3312 15.69906983 25582,6737.3,91.725,361.807,356.523,0.0
55953.0,STARLINK-5889,PAYLOAD,2023-08-26 16:33:34,15.69912257,0.0003763,69.9971,85.8133,273.7755,86.301,2.774e-05,3.122e-05,0.0,0 STARLINK-5889,1 55953U 23037AR  23238.68998756  .00003122  00000-0  27740-4 0  9990,2 55953  69.9971  85.8133 0003763 273.7755  86.3010 15.69912257 25948,6737.285,91.725,361.685,356.615,0.0
55953.0,STARLINK-5889,PAYLOAD,2023-08-27 00:12:18,15.69938517,0.0004253,69.9967,84.9186,267.145,92.9259,5.6169e-05,6.551e-05,0.0,0 STARLINK-5889,1 55953U 23037AR  23239.00854720  .00006551  00000-0  56169-4 0  9995,2 55953  69.9967  84.9186 0004253 267.1450  92.9259 15.69938517 25995,6737.21,91.723,361.94,356.21,0.0
55953.0,STARLINK-5889,PAYLOAD,2023-08-27 17:01:38,15.6989829,0.0004185,69.9972,82.949,273.4741,86.5976,6.9037e-06,6.16e-06,0.0,0 STARLINK-5889,1 55953U 23037AR  23239.70947401  .00000616  00000-0  69037-5 0  9996,2 55953  69.9972  82.9490 0004185 273.4741  86.5976 15.69898290 26106,6737.325,91.726,362.01,356.37,0.0
55953.0,STARLINK-5889,PAYLOAD,2023-08-28 02:12:08,15.69913271,0.0004076,69.9967,81.873,262.3236,97.7497,1.9162e-05,2.091e-05,0.0,0 STARLINK-5889,1 55953U 23037AR  23240.09176485  .00002091  00000-0  19162-4 0  9998,2 55953  69.9967  81.8730 0004076 262.3236  97.7497 15.69913271 26165,6737.282,91.725,361.893,356.401,0.0
